{
  "norad_id": 67270,
  "name": "SITRO-TD-3",
  "history": [
    {
      "epoch": "2026-04-12T03:26:43.648800Z",
      "apogee_km": 508.3889442257041,
      "perigee_km": 489.4454107883439,
      "latitude_deg": -6.1795719919924505e-06,
      "longitude_deg": -74.16819299187352,
      "height_km": 507.887631355765,
      "semi_major_axis_km": 6877.054177507024,
      "eccentricity": 0.0013773,
      "inclination_deg": 97.3969,
      "raan_deg": 177.8666,
      "arg_perigee_deg": 231.7227,
      "mean_anomaly_deg": 128.2771,
      "mean_motion_rev_day": 15.22295955
    },
    {
      "epoch": "2026-04-14T04:21:00.049248Z",
      "apogee_km": 508.44322637281584,
      "perigee_km": 489.2701679451375,
      "latitude_deg": 6.487497421637224e-05,
      "longitude_deg": -87.7396756745809,
      "height_km": 508.8600537150666,
      "semi_major_axis_km": 6876.993697158977,
      "eccentricity": 0.001394,
      "inclination_deg": 97.397,
      "raan_deg": 179.8719,
      "arg_perigee_deg": 223.9637,
      "mean_anomaly_deg": 136.0492,
      "mean_motion_rev_day": 15.22316037
    },
    {
      "epoch": "2026-04-15T16:38:01.248864Z",
      "apogee_km": 508.50633421010843,
      "perigee_km": 489.11883793705056,
      "latitude_deg": -7.006986989858476e-05,
      "longitude_deg": 88.00292873418785,
      "height_km": 509.50586473325205,
      "semi_major_axis_km": 6876.94958607358,
      "eccentricity": 0.0014096,
      "inclination_deg": 97.3971,
      "raan_deg": 181.3596,
      "arg_perigee_deg": 218.4646,
      "mean_anomaly_deg": 141.5586,
      "mean_motion_rev_day": 15.22330684
    },
    {
      "epoch": "2026-04-16T14:43:09.151104Z",
      "apogee_km": 508.6532745628256,
      "perigee_km": 488.9165087337951,
      "latitude_deg": 1.6148486453499354e-05,
      "longitude_deg": 116.7185729546086,
      "height_km": 509.9355043918252,
      "semi_major_axis_km": 6876.92189164831,
      "eccentricity": 0.001435,
      "inclination_deg": 97.3973,
      "raan_deg": 182.2652,
      "arg_perigee_deg": 215.3648,
      "mean_anomaly_deg": 144.6638,
      "mean_motion_rev_day": 15.2233988
    },
    {
      "epoch": "2026-04-17T22:16:11.227872Z",
      "apogee_km": 508.5455506123535,
      "perigee_km": 488.9347600285264,
      "latitude_deg": 2.2315770932448348e-05,
      "longitude_deg": 3.457584613237891,
      "height_km": 510.29960371567927,
      "semi_major_axis_km": 6876.87715532044,
      "eccentricity": 0.00142585,
      "inclination_deg": 97.3964,
      "raan_deg": 183.5586,
      "arg_perigee_deg": 210.4073,
      "mean_anomaly_deg": 149.6338,
      "mean_motion_rev_day": 15.22354735
    },
    {
      "epoch": "2026-04-18T10:53:23.609472Z",
      "apogee_km": 508.56004680644855,
      "perigee_km": 488.8633767262072,
      "latitude_deg": -1.2902572412613873e-05,
      "longitude_deg": 174.15530990272435,
      "height_km": 510.47681941234254,
      "semi_major_axis_km": 6876.848711766328,
      "eccentricity": 0.0014321,
      "inclination_deg": 97.3963,
      "raan_deg": 184.0762,
      "arg_perigee_deg": 208.4075,
      "mean_anomaly_deg": 151.6382,
      "mean_motion_rev_day": 15.2236418
    },
    {
      "epoch": "2026-04-19T13:42:26.947008Z",
      "apogee_km": 508.58703460037214,
      "perigee_km": 488.7502011151,
      "latitude_deg": 6.206844752144303e-05,
      "longitude_deg": 131.88963366120933,
      "height_km": 510.80642778145614,
      "semi_major_axis_km": 6876.805617857736,
      "eccentricity": 0.0014423,
      "inclination_deg": 97.3959,
      "raan_deg": 185.1758,
      "arg_perigee_deg": 204.3575,
      "mean_anomaly_deg": 155.6982,
      "mean_motion_rev_day": 15.2237849
    },
    {
      "epoch": "2026-04-20T03:54:17.694720Z",
      "apogee_km": 508.6163050395744,
      "perigee_km": 488.6908044072634,
      "latitude_deg": -1.2873067667093847e-05,
      "longitude_deg": -81.07277409216161,
      "height_km": 510.9804371037165,
      "semi_major_axis_km": 6876.790554723419,
      "eccentricity": 0.00144875,
      "inclination_deg": 97.3956,
      "raan_deg": 185.7579,
      "arg_perigee_deg": 202.1893,
      "mean_anomaly_deg": 157.8718,
      "mean_motion_rev_day": 15.22383492
    }
  ]
}